[
    {
        "Altitude(m)": 622205.8310957258,
        "Argument of Periapsis(deg)": 0.0,
        "Eccentricity": 0.0,
        "Inclination(deg)": 60.0,
        "Latitude(deg)": -52.16233496519292,
        "Longitude(deg)": 117.70036189308905,
        "Mean Anomaly(deg)": -114.54549999999998,
        "RAAN(deg)": 350.0,
        "Satellite Name": "Test1 1555",
        "Satellite Number": 1555,
        "Semi-Major Axis(m)": 6980739.136638005,
        "Time(s)": 0
    },
    {
        "Altitude(m)": 622344.7378836344,
        "Argument of Periapsis(deg)": 0.00010418945913296404,
        "Eccentricity": 0.0,
        "Inclination(deg)": 60.0,
        "Latitude(deg)": -52.51991492275765,
        "Longitude(deg)": 118.48157206093134,
        "Mean Anomaly(deg)": -113.9253938545381,
        "RAAN(deg)": 349.99957995086027,
        "Satellite Name": "Test1 1555",
        "Satellite Number": 1555,
        "Semi-Major Axis(m)": 6980739.136638005,
        "Time(s)": 10
    }
]